{
    "CCSDS_OMM_VERS": "3.0",
    "COMMENT": "GENERATED VIA SPACE-TRACK.ORG API",
    "CREATION_DATE": "2025-05-23T14:26:18",
    "ORIGINATOR": "18 SPCS",
    "OBJECT_NAME": "QZS-1R",
    "OBJECT_ID": "2021-096A",
    "CENTER_NAME": "EARTH",
    "REF_FRAME": "TEME",
    "TIME_SYSTEM": "UTC",
    "MEAN_ELEMENT_THEORY": "SGP4",
    "EPOCH": "2025-05-23T12:22:30.188352",
    "MEAN_MOTION": "1.00262556",
    "ECCENTRICITY": "0.07550530",
    "INCLINATION": "36.6532",
    "RA_OF_ASC_NODE": "85.3892",
    "ARG_OF_PERICENTER": "271.1839",
    "MEAN_ANOMALY": "206.5120",
    "EPHEMERIS_TYPE": "0",
    "CLASSIFICATION_TYPE": "U",
    "NORAD_CAT_ID": "49336",
    "ELEMENT_SET_NO": "999",
    "REV_AT_EPOCH": "1309",
    "BSTAR": "0.00000000000000",
    "MEAN_MOTION_DOT": "-0.00000218",
    "MEAN_MOTION_DDOT": "0.0000000000000",
    "SEMIMAJOR_AXIS": "42167.319",
    "PERIOD": "1436.229",
    "APOAPSIS": "38973.040",
    "PERIAPSIS": "32605.328",
    "OBJECT_TYPE": "PAYLOAD",
    "RCS_SIZE": "LARGE",
    "COUNTRY_CODE": "JPN",
    "LAUNCH_DATE": "2021-10-26",
    "SITE": "TNSTA",
    "DECAY_DATE": null,
    "FILE": "4736890",
    "GP_ID": "288172988",
    "TLE_LINE0": "0 QZS-1R",
    "TLE_LINE1": "1 49336U 21096A   25143.51562718 -.00000218  00000-0  00000+0 0  9994",
    "TLE_LINE2": "2 49336  36.6532  85.3892 0755053 271.1839 206.5120  1.00262556 13099"
}